PERSEUS-M1              
1 40039U 14033AF  26160.07469549  .00001427  00000+0  13384-3 0  9991
2 40039  97.9642 104.0737 0010725 332.5515  27.5137 14.95610260649420
POLYITAN-1              
1 40042U 14033AJ  26160.02430242  .00015996  00000+0  50413-3 0  9998
2 40042  98.0953 185.5149 0007989 165.0271 195.1207 15.32968455652347
TIGRISAT                
1 40043U 14033AK  26159.96351942  .00002420  00000+0  28276-3 0  9999
2 40043  97.7823 310.1645 0050700 101.4521 259.2395 14.85130632644401
AEROCUBE 6A             
1 40045U 14033AM  26160.20866693  .00005102  00000+0  43007-3 0  9993
2 40045  97.7225 327.2428 0039370  44.5114 315.9260 14.98019475645421
AEROCUBE 6B             
1 40046U 14033AN  26159.88512763  .00006500  00000+0  52624-3 0  9990
2 40046  97.7230 326.6943 0039000  37.4874 322.9057 14.99481612645516
CANX-4                  
1 40055U 14034C   26160.18089849  .00000855  00000+0  11697-3 0  9992
2 40055  98.3133  35.1997 0013686  41.4631 318.7616 14.81249771643346
CANX-5                  
1 40056U 14034D   26160.17942456  .00000864  00000+0  11810-3 0  9991
2 40056  98.3135  35.2414 0013695  41.5932 318.6319 14.81266924634156
UKUBE-1                 
1 40074U 14037F   26160.23466731  .00007593  00000+0  42922-3 0  9992
2 40074  98.4239 162.6716 0002126 144.7688 215.3682 15.13424303647358
BRITE-PL2 (HEWELIUSZ)   
1 40119U 14049B   26160.27228885  .00001922  00000+0  18289-3 0  9994
2 40119  97.9089 272.2120 0015166 132.0173 228.2341 14.94568700640265
AEROCUBE 5C             
1 40965U 15058B   26160.05732802  .00002192  00000+0  20116-3 0  9991
2 40965  64.7678 287.8809 0130443  66.4577 295.0176 14.91414682364447
AEROCUBE 7              
1 40966U 15058C   26160.00998183  .00002914  00000+0  24013-3 0  9995
2 40966  64.7627 270.4275 0120157  64.9556 296.3975 14.95672818364732
FOX-1A (AO-85)          
1 40967U 15058D   26159.76689639  .00003039  00000+0  27655-3 0  9994
2 40967  64.7758 305.1507 0129969  59.8929 301.4993 14.90929725112319
SINOD-D 1               
1 40968U 15058E   26160.05577031  .00002922  00000+0  24048-3 0  9994
2 40968  64.7760 284.3760 0118585  56.3257 304.9098 14.95852380115448
SNAP-3 ALICE            
1 40970U 15058G   26160.28454996  .00107658  00000+0  13677-2 0  9993
2 40970  64.7496 131.2113 0030360  16.9431 343.2720 15.58274483115652
LMRST-SAT               
1 40971U 15058H   26160.12262100  .00002204  00000+0  20612-3 0  9990
2 40971  64.7764 300.3679 0131663  61.7663 299.6668 14.90552711112357
SNAP-3 EDDIE            
1 40972U 15058J   26160.28080398  .00107828  00000+0  13103-2 0  9999
2 40972  64.7419 122.0068 0030185  21.1073 339.1310 15.59448461117797
PROPCUBE 3              
1 40973U 15058K   26159.70947703  .00003403  00000+0  28660-3 0  9996
2 40973  64.7692 279.0224 0123649  63.2696 298.1009 14.94210956113535
BISONSAT                
1 40974U 15058L   26160.24959267  .00008555  00000+0  41939-3 0  9993
2 40974  64.7591 199.3038 0078445  50.5413 310.2616 15.16023843114410
SNAP-3 JIMI             
1 40975U 15058M   26159.33532604  .00004322  00000+0  30225-3 0  9998
2 40975  64.7649 247.7776 0105719  58.9972 302.1477 15.02222356112899
PROPCUBE 1 (FLORA)      
1 40976U 15058N   26159.93582966  .00002356  00000+0  22786-3 0  9999
2 40976  64.7755 320.8090 0130389  64.1517 297.2973 14.89182375115039
SINOD-D 3               
1 40977U 15058P   26160.00753572  .00002949  00000+0  25477-3 0  9991
2 40977  64.7734 301.3608 0118894  61.3845 299.9167 14.93963071113538
HORYU-4                 
1 41340U 16012D   26160.22982444  .00305741  00000+0  94017-3 0  9995
2 41340  30.9844 137.2122 0003257 219.6286 140.4136 15.89952627569543
RAVAN                   
1 41849U 16067B   26160.18939862  .00045081  00000+0  69793-3 0  9991
2 41849  97.9900  48.8416 0005600  53.1703 307.0061 15.53910787526458
CELTEE 1                
1 41850U 16067C   26159.38368841  .00005104  00000+0  24342-3 0  9999
2 41850  98.0685  25.3505 0000625 106.7454 253.3848 15.19595408524546
OPTICUBE 04             
1 41851U 16067D   26160.12532715  .00002307  00000+0  14752-3 0  9993
2 41851  98.0714  11.9886 0016505 140.9303 219.3120 15.09626427523954
AEROCUBE 8D             
1 41852U 16067E   26160.08143812  .00005853  00000+0  24291-3 0  9993
2 41852  98.0697  29.6364 0004223 143.3321 216.8204 15.24283465524834
AEROCUBE 8C             
1 41853U 16067F   26160.17338060  .00006962  00000+0  28603-3 0  9998
2 41853  98.0570  26.9733 0006820  90.4870 269.7147 15.24531499524848
CORVUS BC2              
1 42846U 17042X   26159.89095627  .00002800  00000+0  19451-3 0  9999
2 42846  97.4057 321.5648 0014217 135.9338 224.3026 15.06243536485814
CORVUS BC1              
1 42847U 17042Y   26159.42153111  .00002771  00000+0  19174-3 0  9991
2 42847  97.4085 321.9220 0013306 115.8711 244.3891 15.06407941485775
MAKERSAT 0              
1 43016U 17073D   26158.64340438  .00021201  00000+0  58054-3 0  9996
2 43016  97.4640  41.0894 0106135 307.5668  51.5969 15.31756991465000
